2016/04/16 10:50
EGLL 161050Z AUTO 33008KT 300V010 9999 -RA BKN013/// //////TCU 06/03 Q1004 BECMG BKN016
